QIANFAN GROUP 7 OBJECT B
1 68637U 26075B   26106.87543228  .00000252  00000+0  10811-3 0  9996
2 68637  88.9919 327.6414 0014435 182.8373 177.2739 14.21657863  1327
