{
  "norad_id": 68637,
  "name": "QIANFAN GROUP 7 OBJECT B",
  "history": [
    {
      "epoch": "2026-04-16T21:00:37.348992Z",
      "apogee_km": 830.1416330282836,
      "perigee_km": 809.3613289836194,
      "latitude_deg": 4.515745189277019e-05,
      "longitude_deg": 167.46891611545928,
      "height_km": 833.1875250278651,
      "semi_major_axis_km": 7197.888481005952,
      "eccentricity": 0.0014435,
      "inclination_deg": 88.9919,
      "raan_deg": 327.6414,
      "arg_perigee_deg": 182.8373,
      "mean_anomaly_deg": 177.2739,
      "mean_motion_rev_day": 14.21657863
    }
  ]
}